0 SL-14 DEB
1 26025U 91068AL  13282.51543453  .00000242  00000-0  17073-2 0  1557
2 26025 082.7275 306.6226 0248335 251.8521 266.4649 12.33898334  6313
0 SL-14 DEB
1 26025U 91068AL  13285.51563010  .00000246  00000-0  17334-2 0  1566
2 26025 082.7285 304.8418 0248514 245.4278 273.3893 12.33899930  6685
0 SL-14 DEB
1 26025U 91068AL  13287.02623472  .00000279  00000-0  19754-2 0  1578
2 26025 082.7277 303.9442 0248410 242.1648 143.5579 12.33901382  6878
0 SL-14 DEB
1 26025U 91068AL  13288.51660344  .00000277  00000-0  19607-2 0  1588
2 26025 082.7280 303.0593 0248395 238.9506 283.8381 12.33902006  7052
0 SL-14 DEB
1 26025U 91068AL  13291.51720034  .00000274  00000-0  19375-2 0  1595
2 26025 082.7292 301.2780 0248330 232.4728 292.6427 12.33904308  7424
0 SL-14 DEB
1 26025U 91068AL  13294.00071082  .00000373  00000-0  26620-2 0  1607
2 26025 082.7306 299.8038 0248216 227.0811 164.5748 12.33907265  7736
0 SL-14 DEB
1 26025U 91068AL  13295.49082584  .00000331  00000-0  23524-2 0  1615
2 26025 082.7290 298.9179 0248267 223.8956 303.7206 12.33906678  7917
